     2.10           N: GPS NAV DATA                         RINEX VERSION / TYPE
RTKCONV 2.4.2                           20170923 032507 UTC PGM / RUN BY / DATE 
log: C:\Processing\Quaqtaq\Data_Quaqtaq\Bathymetrie\GNSS_b  COMMENT             
format: NovAtel OEM6                                        COMMENT             
                                                            END OF HEADER       
16 17  9 22 19 59 44.0  .370140187442E-04  .000000000000E+00  .000000000000E+00
     .101000000000E+03 -.824687500000E+02  .379515808357E-08  .127763940359E+01
    -.414811074734E-05  .929831946269E-02  .796094536781E-05  .515376574516E+04
     .503984000000E+06 -.106170773506E-06 -.260883566459E+00  .298023223877E-07
     .989198836102E+00  .243875000000E+03  .460909511143E+00 -.782532595624E-08
    -.479662837025E-09  .100000000000E+01  .196700000000E+04  .000000000000E+00
     .240000000000E+01  .000000000000E+00 -.107102096081E-07  .101000000000E+03
     .499536000000E+06  .400000000000E+01
21 17  9 22 20  0  0.0 -.477200374007E-03  .306954461848E-11  .000000000000E+00
     .113000000000E+03  .349687500000E+02  .529557772493E-08  .277675544651E+01
     .159069895744E-05  .239854055690E-01  .425800681114E-05  .515359714508E+04
     .504000000000E+06  .311061739922E-06  .171245682135E+01 -.216066837311E-06
     .940622825608E+00  .284093750000E+03 -.163945201730E+01 -.818105505950E-08
     .276440086268E-09  .100000000000E+01  .196700000000E+04  .000000000000E+00
     .240000000000E+01  .000000000000E+00 -.977888703346E-08  .113000000000E+03
     .500016000000E+06  .400000000000E+01
30 17  9 22 19 59 44.0  .139031093568E-03 -.216004991671E-11  .000000000000E+00
     .890000000000E+02  .312187500000E+02  .519307345521E-08 -.245697579004E+01
     .157020986080E-05  .304349488579E-02  .264495611191E-05  .515362309456E+04
     .503984000000E+06  .558793544769E-08 -.132964701028E+01 -.130385160446E-07
     .946389214189E+00  .321031250000E+03 -.305465609592E+01 -.860678707866E-08
     .650027076237E-10  .100000000000E+01  .196700000000E+04  .000000000000E+00
     .240000000000E+01  .000000000000E+00  .372529029846E-08  .345000000000E+03
     .500376000000E+06  .400000000000E+01
15 17  9 22 20  0  0.0 -.356040894985E-03 -.341060513165E-12  .000000000000E+00
     .840000000000E+02  .519687500000E+02  .513914263735E-08 -.439596468306E+00
     .265613198280E-05  .962702941615E-02  .116005539894E-04  .515362258339E+04
     .504000000000E+06  .577419996262E-07 -.251015822674E+01  .139698386192E-06
     .929144944445E+00  .137656250000E+03  .604457466994E+00 -.842892252703E-08
    -.385730352932E-10  .100000000000E+01  .196700000000E+04  .000000000000E+00
     .240000000000E+01  .000000000000E+00 -.107102096081E-07  .840000000000E+02
     .501666000000E+06  .400000000000E+01
16 17  9 22 22  0  0.0  .370140187442E-04  .000000000000E+00  .000000000000E+00
     .104000000000E+03 -.883437500000E+02  .380301555372E-08  .233001318368E+01
    -.464543700218E-05  .929802947212E-02  .797584652901E-05  .515376720810E+04
     .511200000000E+06 -.912696123123E-07 -.260940098002E+00 -.540167093277E-07
     .989195465539E+00  .244531250000E+03  .460988596494E+00 -.778818155188E-08
    -.471805366873E-09  .100000000000E+01  .196700000000E+04  .000000000000E+00
     .240000000000E+01  .000000000000E+00 -.107102096081E-07  .104000000000E+03
     .504006000000E+06  .400000000000E+01
13 17  9 22 22  0  0.0 -.917795114219E-04 -.568434188608E-12  .000000000000E+00
     .139000000000E+03  .745937500000E+02  .434625246743E-08 -.142219440445E+00
     .398419797421E-05  .350331491791E-02  .103507190943E-04  .515366306877E+04
     .511200000000E+06  .111758708954E-07 -.231768979877E+01  .558793544769E-08
     .969355544635E+00  .183656250000E+03  .173827289281E+01 -.801140513575E-08
     .191436545529E-09  .100000000000E+01  .196700000000E+04  .000000000000E+00
     .340000000000E+01  .000000000000E+00 -.111758708954E-07  .139000000000E+03
     .504006000000E+06  .400000000000E+01
30 17  9 22 22  0  0.0  .139015261084E-03 -.216004991671E-11  .000000000000E+00
     .900000000000E+02  .347500000000E+02  .515485757765E-08 -.140406418566E+01
     .174529850483E-05  .304314587265E-02  .301375985146E-05  .515362526894E+04
     .511200000000E+06  .372529029846E-08 -.132970909506E+01 -.149011611938E-07
     .946389677935E+00  .313531250000E+03 -.305501792091E+01 -.860607276319E-08
     .621454457501E-10  .100000000000E+01  .196700000000E+04  .000000000000E+00
     .240000000000E+01  .000000000000E+00  .372529029846E-08  .346000000000E+03
     .504006000000E+06  .400000000000E+01
 2 17  9 22 22  0  0.0  .323905143887E-03 -.920863385545E-11  .000000000000E+00
     .100000000000E+01  .315000000000E+02  .538808157808E-08 -.347508063220E+00
     .176765024662E-05  .170789383119E-01  .473670661449E-05  .515358010101E+04
     .511200000000E+06 -.949949026108E-07  .170382917420E+01  .238418579102E-06
     .947192287458E+00  .287906250000E+03 -.195413918133E+01 -.887465537930E-08
     .389301930274E-09  .100000000000E+01  .196700000000E+04  .000000000000E+00
     .240000000000E+01  .000000000000E+00 -.204890966415E-07  .257000000000E+03
     .504006000000E+06  .400000000000E+01
20 17  9 22 22  0  0.0  .487451441586E-03  .125055521494E-11  .000000000000E+00
     .137000000000E+03 -.619687500000E+02  .559737601032E-08  .468465111441E+00
    -.316090881824E-05  .455534085631E-02  .754557549953E-05  .515373706436E+04
     .511200000000E+06 -.540167093277E-07  .270142025053E+01  .391155481339E-07
     .927605632784E+00  .217968750000E+03  .166751228409E+01 -.868679041112E-08
    -.407516974718E-09  .100000000000E+01  .196700000000E+04  .000000000000E+00
     .240000000000E+01  .000000000000E+00 -.838190317154E-08  .137000000000E+03
     .504006000000E+06  .400000000000E+01
 7 17  9 22 22  0  0.0  .302682165056E-03 -.488853402203E-11  .000000000000E+00
     .100000000000E+03  .372187500000E+02  .478198490315E-08 -.138142174235E+01
     .190362334251E-05  .110595298465E-01  .317580997944E-05  .515371920395E+04
     .511200000000E+06  .186264514923E-06 -.136692389357E+01 -.104308128357E-06
     .960689969873E+00  .317531250000E+03 -.255677637008E+01 -.834749056363E-08
     .115719105880E-09  .100000000000E+01  .196700000000E+04  .000000000000E+00
     .240000000000E+01  .000000000000E+00 -.111758708954E-07  .100000000000E+03
     .504006000000E+06  .400000000000E+01
15 17  9 22 22  0  0.0 -.356043223292E-03 -.341060513165E-12  .000000000000E+00
     .860000000000E+02  .560937500000E+02  .519593071708E-08  .610644791235E+00
     .316090881824E-05  .962776737288E-02  .112876296043E-04  .515362395096E+04
     .511200000000E+06 -.745058059692E-08 -.251021897880E+01  .113621354103E-06
     .929144613826E+00  .143031250000E+03  .604432222880E+00 -.843749431265E-08
    -.539308178636E-10  .100000000000E+01  .196700000000E+04  .000000000000E+00
     .240000000000E+01  .000000000000E+00 -.107102096081E-07  .860000000000E+02
     .504006000000E+06  .400000000000E+01
26 17  9 22 22  0  0.0 -.418509356678E-03  .109139364213E-10  .000000000000E+00
     .162000000000E+03 -.842187500000E+02  .461162066394E-08 -.299234561655E+01
    -.435858964920E-05  .191431748681E-02  .676698982716E-05  .515377018929E+04
     .511200000000E+06  .130385160446E-07 -.354015220852E+00  .335276126862E-07
     .958189284041E+00  .248687500000E+03 -.135712671949E-01 -.826820154664E-08
    -.434660962517E-09  .100000000000E+01  .196700000000E+04  .000000000000E+00
     .240000000000E+01  .000000000000E+00  .745058059692E-08  .162000000000E+03
     .504006000000E+06  .400000000000E+01
 5 17  9 22 22  0  0.0 -.284970737994E-04  .136424205266E-11  .000000000000E+00
     .140000000000E+03 -.630000000000E+02  .505306762341E-08  .217886303798E+01
    -.322051346302E-05  .521398684941E-02  .844709575176E-05  .515356134605E+04
     .511200000000E+06 -.162050127983E-06  .278414456380E+01 -.223517417908E-07
     .947428316124E+00  .211031250000E+03  .587580023958E+00 -.825141513313E-08
    -.386444668400E-09  .100000000000E+01  .196700000000E+04  .000000000000E+00
     .240000000000E+01  .000000000000E+00 -.107102096081E-07  .140000000000E+03
     .504006000000E+06  .400000000000E+01
29 17  9 22 22  0  0.0  .559788662940E-03 -.466116034659E-11  .000000000000E+00
     .116000000000E+03  .224062500000E+02  .372051211712E-08  .271805289324E+01
     .117532908916E-05  .490597914904E-03  .118091702461E-04  .515356850624E+04
     .511200000000E+06  .260770320892E-07  .765340705112E+00  .335276126862E-07
     .982189998510E+00  .161750000000E+03  .913471216737E+00 -.765139013968E-08
     .413231498465E-09  .100000000000E+01  .196700000000E+04  .000000000000E+00
     .240000000000E+01  .000000000000E+00 -.102445483208E-07  .116000000000E+03
     .504006000000E+06  .400000000000E+01
21 17  9 22 22  0  0.0 -.477178487927E-03  .306954461848E-11  .000000000000E+00
     .116000000000E+03  .367812500000E+02  .521557439247E-08 -.245620327127E+01
     .184029340744E-05  .239859170979E-01  .373646616936E-05  .515359616089E+04
     .511200000000E+06  .299885869026E-06  .171239660618E+01  .102445483208E-06
     .940625809961E+00  .287562500000E+03 -.163944453009E+01 -.817426906255E-08
     .515378610445E-09  .100000000000E+01  .196700000000E+04  .000000000000E+00
     .240000000000E+01  .000000000000E+00 -.977888703346E-08  .116000000000E+03
     .504006000000E+06  .400000000000E+01
